NORAD_CAT_ID,OBJECT_NAME,OBJECT_TYPE,EPOCH,MEAN_MOTION,ECCENTRICITY,INCLINATION,RA_OF_ASC_NODE,ARG_OF_PERICENTER,MEAN_ANOMALY,BSTAR,MEAN_MOTION_DOT,MEAN_MOTION_DDOT,TLE_LINE0,TLE_LINE1,TLE_LINE2,SEMIMAJOR_AXIS,PERIOD,APOGEE,PERIGEE,DECAYED
51770.0,STARLINK-3612,PAYLOAD,2024-03-28 20:40:08,15.08839315,0.0001609,53.2164,290.1524,77.3205,282.7967,0.00010894,1.446e-05,0.0,0 STARLINK-3612,1 51770U 22017C   24088.86120828  .00001446  00000-0  10894-3 0  9999,2 51770  53.2164 290.1524 0001609  77.3205 282.7967 15.08839315116749,6917.882,95.438,540.861,538.634,0.0
51770.0,STARLINK-3612,PAYLOAD,2024-03-29 14:09:23,15.0883407,0.0001227,53.2153,286.8802,83.4861,276.6271,0.00014518,2.023e-05,0.0,0 STARLINK-3612,1 51770U 22017C   24089.58985153  .00002023  00000-0  14518-3 0  9998,2 51770  53.2153 286.8802 0001227  83.4861 276.6271 15.08834070115416,6917.899,95.438,540.612,538.915,0.0
51770.0,STARLINK-3612,PAYLOAD,2024-03-30 12:24:47,15.08829814,0.0001677,53.2176,282.7179,80.1053,280.0129,-1.8304e-05,-5.79e-06,0.0,0 STARLINK-3612,1 51770U 22017C   24090.51721686 -.00000579  00000-0 -18304-4 0  9996,2 51770  53.2176 282.7179 0001677  80.1053 280.0129 15.08829814115555,6917.912,95.438,540.937,538.616,0.0
51770.0,STARLINK-3612,PAYLOAD,2024-03-30 20:21:42,15.08842868,0.0001072,53.2197,281.2316,56.0941,304.0153,9.1246e-05,1.165e-05,0.0,0 STARLINK-3612,1 51770U 22017C   24090.84840764  .00001165  00000-0  91246-4 0  9997,2 51770  53.2197 281.2316 0001072  56.0941 304.0153 15.08842868117046,6917.872,95.437,540.478,538.995,0.0
51770.0,STARLINK-3612,PAYLOAD,2024-03-31 12:15:33,15.0883925,0.000139,53.2184,278.2586,86.6503,273.4648,7.2733e-05,8.7e-06,0.0,0 STARLINK-3612,1 51770U 22017C   24091.51080912  .00000870  00000-0  72733-4 0  9995,2 51770  53.2184 278.2586 0001390  86.6503 273.4648 15.08839250115703,6917.883,95.438,540.709,538.786,0.0
51770.0,STARLINK-3612,PAYLOAD,2024-03-31 18:37:06,15.0884526,0.0001551,53.2156,277.07,84.1734,275.9435,7.9187e-05,9.73e-06,0.0,0 STARLINK-3612,1 51770U 22017C   24091.77576480  .00000973  00000-0  79187-4 0  9997,2 51770  53.2156 277.0700 0001551  84.1734 275.9435 15.08845260115748,6917.864,95.437,540.802,538.656,0.0
51770.0,STARLINK-3612,PAYLOAD,2024-04-01 18:27:53,15.08833217,9.84e-05,53.2188,272.608,84.4796,275.6309,0.00020788,3.022e-05,0.0,0 STARLINK-3612,1 51770U 22017C   24092.76936680  .00003022  00000-0  20788-3 0  9999,2 51770  53.2188 272.6080 0000984  84.4796 275.6309 15.08833217117338,6917.901,95.438,540.447,539.085,0.0
51770.0,STARLINK-3612,PAYLOAD,2024-04-02 11:57:07,15.08839245,0.0001178,53.2164,269.3394,75.7804,284.3319,4.3224e-05,4e-06,0.0,0 STARLINK-3612,1 51770U 22017C   24093.49800765  .00000400  00000-0  43224-4 0  9992,2 51770  53.2164 269.3394 0001178  75.7804 284.3319 15.08839245116000,6917.883,95.438,540.563,538.933,0.0
51770.0,STARLINK-3612,PAYLOAD,2024-04-02 18:18:40,15.08834299,0.000102,53.2189,268.146,93.2806,266.8303,0.00010851,1.439e-05,0.0,0 STARLINK-3612,1 51770U 22017C   24093.76296852  .00001439  00000-0  10851-3 0  9990,2 51770  53.2189 268.1460 0001020  93.2806 266.8303 15.08834299116047,6917.898,95.438,540.468,539.057,0.0
51770.0,STARLINK-3612,PAYLOAD,2024-04-03 11:47:55,15.08835195,0.0001166,53.2178,264.8746,92.3066,267.8059,6.2106e-05,7.01e-06,0.0,0 STARLINK-3612,1 51770U 22017C   24094.49160893  .00000701  00000-0  62106-4 0  9998,2 51770  53.2178 264.8746 0001166  92.3066 267.8059 15.08835195117590,6917.895,95.438,540.567,538.953,0.0
51770.0,STARLINK-3612,PAYLOAD,2024-04-03 21:20:13,15.08837807,0.0001192,53.2173,263.0922,89.7088,270.4041,7.7446e-05,9.45e-06,0.0,0 STARLINK-3612,1 51770U 22017C   24094.88904810  .00000945  00000-0  77446-4 0  9999,2 51770  53.2173 263.0922 0001192  89.7088 270.4041 15.08837807116216,6917.887,95.438,540.577,538.927,0.0
51770.0,STARLINK-3612,PAYLOAD,2024-04-04 14:49:28,15.0883672,0.0001266,53.2182,259.8231,95.37,264.7437,-4.2663e-05,-9.67e-06,0.0,0 STARLINK-3612,1 51770U 22017C   24095.61769335 -.00000967  00000-0 -42663-4 0  9991,2 51770  53.2182 259.8231 0001266  95.3700 264.7437 15.08836720116328,6917.89,95.438,540.631,538.88,0.0
51770.0,STARLINK-3612,PAYLOAD,2024-04-04 18:00:14,15.08834853,0.0001359,53.2185,259.2286,96.4477,263.667,8.0236e-06,-1.6e-06,0.0,0 STARLINK-3612,1 51770U 22017C   24095.75017333 -.00000160  00000-0  80236-5 0  9993,2 51770  53.2185 259.2286 0001359  96.4477 263.6670 15.08834853117784,6917.896,95.438,540.701,538.821,0.0
51770.0,STARLINK-3612,PAYLOAD,2024-04-05 03:32:33,15.0884354,0.0001363,53.2188,257.4443,95.4126,264.7021,9.418e-05,1.211e-05,0.0,0 STARLINK-3612,1 51770U 22017C   24096.14760587  .00001211  00000-0  94180-4 0  9992,2 51770  53.2188 257.4443 0001363  95.4126 264.7021 15.08843540117849,6917.87,95.437,540.677,538.792,0.0
51770.0,STARLINK-3612,PAYLOAD,2024-04-05 14:40:15,15.08837984,0.0001423,53.2192,255.3631,98.8276,261.2877,5.9575e-05,6.6e-06,0.0,0 STARLINK-3612,1 51770U 22017C   24096.61129042  .00000660  00000-0  59575-4 0  9995,2 51770  53.2192 255.3631 0001423  98.8276 261.2877 15.08837984116474,6917.887,95.438,540.736,538.767,0.0
51770.0,STARLINK-3612,PAYLOAD,2024-04-05 17:51:01,15.08841048,0.0001421,53.2187,254.7685,101.0273,259.0879,9.0624e-05,1.155e-05,0.0,0 STARLINK-3612,1 51770U 22017C   24096.74376760  .00001155  00000-0  90624-4 0  9990,2 51770  53.2187 254.7685 0001421 101.0273 259.0879 15.08841048116497,6917.877,95.437,540.725,538.759,0.0
51770.0,STARLINK-3612,PAYLOAD,2024-04-06 09:44:53,15.08838978,0.0002016,53.2199,251.7949,89.3649,270.7574,6.3344e-05,7.2e-06,0.0,0 STARLINK-3612,1 51770U 22017C   24097.40617022  .00000720  00000-0  63344-4 0  9999,2 51770  53.2199 251.7949 0002016  89.3649 270.7574 15.08838978118038,6917.884,95.438,541.143,538.354,0.0
51770.0,STARLINK-3612,PAYLOAD,2024-04-07 09:35:40,15.08833889,0.0001852,53.2177,247.3338,87.7002,272.4202,9.0115e-06,-1.45e-06,0.0,0 STARLINK-3612,1 51770U 22017C   24098.39977733 -.00000145  00000-0  90115-5 0  9995,2 51770  53.2177 247.3338 0001852  87.7002 272.4202 15.08833889118188,6917.899,95.438,541.045,538.483,0.0
51770.0,STARLINK-3612,PAYLOAD,2024-04-07 15:57:13,15.08835274,0.0001692,53.2176,246.1448,88.432,271.6865,1.9333e-05,2e-07,0.0,0 STARLINK-3612,1 51770U 22017C   24098.66473692  .00000020  00000-0  19333-4 0  9993,2 51770  53.2176 246.1448 0001692  88.4320 271.6865 15.08835274116789,6917.895,95.438,540.93,538.589,0.0
51770.0,STARLINK-3612,PAYLOAD,2024-04-08 09:26:27,15.08837389,0.0001703,53.2167,242.8722,84.7643,275.3543,0.00014152,1.965e-05,0.0,0 STARLINK-3612,1 51770U 22017C   24099.39337287  .00001965  00000-0  14152-3 0  9995,2 51770  53.2167 242.8722 0001703  84.7643 275.3543 15.08837389118333,6917.888,95.438,540.931,538.575,0.0
51770.0,STARLINK-3612,PAYLOAD,2024-04-08 15:47:59,15.08841428,0.0001613,53.2162,241.6828,85.4118,274.7058,0.00017128,2.439e-05,0.0,0 STARLINK-3612,1 51770U 22017C   24099.65832999  .00002439  00000-0  17128-3 0  9997,2 51770  53.2162 241.6828 0001613  85.4118 274.7058 15.08841428116934,6917.876,95.437,540.857,538.625,0.0
51770.0,STARLINK-3612,PAYLOAD,2024-04-09 02:55:41,15.08848924,0.0001635,53.2171,239.6016,83.8184,276.2994,0.00015116,2.119e-05,0.0,0 STARLINK-3612,1 51770U 22017C   24100.12200584  .00002119  00000-0  15116-3 0  9991,2 51770  53.2171 239.6016 0001635  83.8184 276.2994 15.08848924118441,6917.853,95.437,540.849,538.587,0.0
51770.0,STARLINK-3612,PAYLOAD,2024-04-09 18:49:33,15.08834595,0.0001518,53.2169,236.6273,90.7936,269.3231,1.3046e-05,-8e-07,0.0,0 STARLINK-3612,1 51770U 22017C   24100.78441913 -.00000080  00000-0  13046-4 0  9993,2 51770  53.2169 236.6273 0001518  90.7936 269.3231 15.08834595118549,6917.897,95.438,540.812,538.712,0.0
51770.0,STARLINK-3612,PAYLOAD,2024-04-10 15:29:34,15.0884052,0.0001575,53.2165,232.7627,85.1713,274.9459,5.1769e-06,-2.06e-06,0.0,0 STARLINK-3612,1 51770U 22017C   24101.64553653 -.00000206  00000-0  51769-5 0  9999,2 51770  53.2165 232.7627 0001575  85.1713 274.9459 15.08840520117233,6917.879,95.438,540.833,538.654,0.0
51770.0,STARLINK-3612,PAYLOAD,2024-04-10 18:40:20,15.08840892,0.0001909,53.217,232.168,92.2867,267.8343,9.847e-06,-1.31e-06,0.0,0 STARLINK-3612,1 51770U 22017C   24101.77801650 -.00000131  00000-0  98470-5 0  9993,2 51770  53.2170 232.1680 0001909  92.2867 267.8343 15.08840892118698,6917.878,95.437,541.063,538.422,0.0
51770.0,STARLINK-3612,PAYLOAD,2024-04-11 13:44:58,15.08829952,0.0001381,53.2178,228.5994,84.3026,275.8123,9.3063e-05,1.193e-05,0.0,0 STARLINK-3612,1 51770U 22017C   24102.57290321  .00001193  00000-0  93063-4 0  9999,2 51770  53.2178 228.5994 0001381  84.3026 275.8123 15.08829952118819,6917.911,95.438,540.731,538.821,0.0
51770.0,STARLINK-3612,PAYLOAD,2024-04-11 15:20:21,15.08833794,0.0001345,53.2168,228.2996,87.4248,272.6898,9.8148e-05,1.274e-05,0.0,0 STARLINK-3612,1 51770U 22017C   24102.63914083  .00001274  00000-0  98148-4 0  9993,2 51770  53.2168 228.2996 0001345  87.4248 272.6898 15.08833794117381,6917.899,95.438,540.695,538.834,0.0
51770.0,STARLINK-3612,PAYLOAD,2024-04-12 00:52:40,15.08842448,0.000143,53.2185,226.5184,90.7616,269.354,0.00015465,2.174e-05,0.0,0 STARLINK-3612,1 51770U 22017C   24103.03657443  .00002174  00000-0  15465-3 0  9992,2 51770  53.2185 226.5184 0001430  90.7616 269.3540 15.08842448118880,6917.873,95.437,540.727,538.749,0.0
51770.0,STARLINK-3612,PAYLOAD,2024-04-12 12:00:23,15.08831379,0.0001469,53.2172,224.4338,82.9167,277.1993,2.9438e-05,1.8e-06,0.0,0 STARLINK-3612,1 51770U 22017C   24103.50026732  .00000180  00000-0  29438-4 0  9996,2 51770  53.2172 224.4338 0001469  82.9167 277.1993 15.08831379118958,6917.907,95.438,540.788,538.755,0.0
51770.0,STARLINK-3612,PAYLOAD,2024-04-12 13:35:46,15.08832901,0.00015,53.2184,224.1371,85.2961,274.8202,3.9279e-05,3.37e-06,0.0,0 STARLINK-3612,1 51770U 22017C   24103.56650644  .00000337  00000-0  39279-4 0  9995,2 51770  53.2184 224.1371 0001500  85.2961 274.8202 15.08832901117520,6917.902,95.438,540.805,538.729,0.0
